{
  "type": "FeatureCollection",
  "features": [
    {
      "type": "Feature",
      "properties": {
        "norad_id": 37404,
        "name": "FENGYUN 1C DEB",
        "group": "fengyun-1c-debris",
        "lat": 70.48587340867212,
        "lon": -159.92447698056418,
        "alt_km": 753.891295827485,
        "timestamp": "2025-12-18T13:51:49.972951+00:00",
        "meta_object_name": "FENGYUN 1C DEB",
        "meta_object_id": "1999-025EFW",
        "meta_epoch": "2025-12-16T11:45:12.493152",
        "meta_mean_motion": 14.31655122,
        "meta_eccentricity": 0.00446663,
        "meta_inclination": 98.4523,
        "meta_ra_of_asc_node": 353.235,
        "meta_arg_of_pericenter": 151.2611,
        "meta_mean_anomaly": 1.6985,
        "meta_ephemeris_type": 0,
        "meta_classification_type": "U",
        "meta_norad_cat_id": 37404,
        "meta_element_set_no": 999,
        "meta_rev_at_epoch": 82794,
        "meta_bstar": 0.00050133816,
        "meta_mean_motion_dot": 1.309e-05,
        "meta_mean_motion_ddot": 0,
        "tle_line1": "1 37404U 99025EFW 25350.48972793  .00001309  00000+0  50134-3 0  9995",
        "tle_line2": "2 37404  98.4523 353.2350 0044666 151.2611   1.6985 14.31655122827944"
      },
      "geometry": {
        "type": "Point",
        "coordinates": [
          -159.92447698056418,
          70.48587340867212
        ]
      }
    },
    {
      "type": "Feature",
      "properties": {
        "norad_id": 37406,
        "name": "FENGYUN 1C DEB",
        "group": "fengyun-1c-debris",
        "lat": 7.313420533014167,
        "lon": 45.40336344261644,
        "alt_km": 855.8144292640645,
        "timestamp": "2025-12-18T13:51:49.972963+00:00",
        "meta_object_name": "FENGYUN 1C DEB",
        "meta_object_id": "1999-025EFY",
        "meta_epoch": "2025-12-17T21:43:55.583616",
        "meta_mean_motion": 14.04310456,
        "meta_eccentricity": 0.01491027,
        "meta_inclination": 98.4431,
        "meta_ra_of_asc_node": 223.6859,
        "meta_arg_of_pericenter": 251.8756,
        "meta_mean_anomaly": 126.0764,
        "meta_ephemeris_type": 0,
        "meta_classification_type": "U",
        "meta_norad_cat_id": 37406,
        "meta_element_set_no": 999,
        "meta_rev_at_epoch": 63305,
        "meta_bstar": 0.00073122716,
        "meta_mean_motion_dot": 1.243e-05,
        "meta_mean_motion_ddot": 0,
        "tle_line1": "1 37406U 99025EFY 25351.90550444  .00001243  00000+0  73123-3 0  9990",
        "tle_line2": "2 37406  98.4431 223.6859 0149102 251.8756 126.0764 14.04310456633058"
      },
      "geometry": {
        "type": "Point",
        "coordinates": [
          45.40336344261644,
          7.313420533014167
        ]
      }
    },
    {
      "type": "Feature",
      "properties": {
        "norad_id": 37415,
        "name": "FENGYUN 1C DEB",
        "group": "fengyun-1c-debris",
        "lat": 28.437820244844755,
        "lon": -75.22056589415881,
        "alt_km": 859.0093114454448,
        "timestamp": "2025-12-18T13:51:49.972973+00:00",
        "meta_object_name": "FENGYUN 1C DEB",
        "meta_object_id": "1999-025EGH",
        "meta_epoch": "2025-12-08T13:21:24.699168",
        "meta_mean_motion": 13.52085555,
        "meta_eccentricity": 0.0285076,
        "meta_inclination": 98.9817,
        "meta_ra_of_asc_node": 90.7824,
        "meta_arg_of_pericenter": 192.9583,
        "meta_mean_anomaly": 166.412,
        "meta_ephemeris_type": 0,
        "meta_classification_type": "U",
        "meta_norad_cat_id": 37415,
        "meta_element_set_no": 999,
        "meta_rev_at_epoch": 62265,
        "meta_bstar": 0.00090162,
        "meta_mean_motion_dot": 7.27e-06,
        "meta_mean_motion_ddot": 0,
        "tle_line1": "1 37415U 99025EGH 25342.55653587  .00000727  00000+0  90162-3 0  9991",
        "tle_line2": "2 37415  98.9817  90.7824 0285076 192.9583 166.4120 13.52085555622659"
      },
      "geometry": {
        "type": "Point",
        "coordinates": [
          -75.22056589415881,
          28.437820244844755
        ]
      }
    },
    {
      "type": "Feature",
      "properties": {
        "norad_id": 37417,
        "name": "FENGYUN 1C DEB",
        "group": "fengyun-1c-debris",
        "lat": 14.981217544060888,
        "lon": -17.15614403470519,
        "alt_km": 906.0059731985975,
        "timestamp": "2025-12-18T13:51:49.972983+00:00",
        "meta_object_name": "FENGYUN 1C DEB",
        "meta_object_id": "1999-025EGK",
        "meta_epoch": "2025-12-14T05:42:40.741056",
        "meta_mean_motion": 14.07392005,
        "meta_eccentricity": 0.00781873,
        "meta_inclination": 98.797,
        "meta_ra_of_asc_node": 340.9941,
        "meta_arg_of_pericenter": 256.4358,
        "meta_mean_anomaly": 102.8093,
        "meta_ephemeris_type": 0,
        "meta_classification_type": "U",
        "meta_norad_cat_id": 37417,
        "meta_element_set_no": 999,
        "meta_rev_at_epoch": 68371,
        "meta_bstar": 0.00034066216,
        "meta_mean_motion_dot": 5.45e-06,
        "meta_mean_motion_ddot": 0,
        "tle_line1": "1 37417U 99025EGK 25348.23797154  .00000545  00000+0  34066-3 0  9992",
        "tle_line2": "2 37417  98.7970 340.9941 0078187 256.4358 102.8093 14.07392005683717"
      },
      "geometry": {
        "type": "Point",
        "coordinates": [
          -17.15614403470519,
          14.981217544060888
        ]
      }
    },
    {
      "type": "Feature",
      "properties": {
        "norad_id": 37418,
        "name": "FENGYUN 1C DEB",
        "group": "fengyun-1c-debris",
        "lat": 69.29254439072136,
        "lon": -140.83430750575664,
        "alt_km": 2096.58713082699,
        "timestamp": "2025-12-18T13:51:49.972994+00:00",
        "meta_object_name": "FENGYUN 1C DEB",
        "meta_object_id": "1999-025EGL",
        "meta_epoch": "2025-12-14T23:05:36.441312",
        "meta_mean_motion": 11.9514329,
        "meta_eccentricity": 0.10770942,
        "meta_inclination": 98.6128,
        "meta_ra_of_asc_node": 240.39,
        "meta_arg_of_pericenter": 315.5082,
        "meta_mean_anomaly": 36.4187,
        "meta_ephemeris_type": 0,
        "meta_classification_type": "U",
        "meta_norad_cat_id": 37418,
        "meta_element_set_no": 999,
        "meta_rev_at_epoch": 49511,
        "meta_bstar": 0.0027835423,
        "meta_mean_motion_dot": 1.13e-05,
        "meta_mean_motion_ddot": 0,
        "tle_line1": "1 37418U 99025EGL 25348.96222733  .00001130  00000+0  27835-2 0  9995",
        "tle_line2": "2 37418  98.6128 240.3900 1077094 315.5082  36.4187 11.95143290495113"
      },
      "geometry": {
        "type": "Point",
        "coordinates": [
          -140.83430750575664,
          69.29254439072136
        ]
      }
    },
    {
      "type": "Feature",
      "properties": {
        "norad_id": 37420,
        "name": "FENGYUN 1C DEB",
        "group": "fengyun-1c-debris",
        "lat": 80.93697843331654,
        "lon": -119.55085377075395,
        "alt_km": 937.547688333002,
        "timestamp": "2025-12-18T13:51:49.973004+00:00",
        "meta_object_name": "FENGYUN 1C DEB",
        "meta_object_id": "1999-025EGN",
        "meta_epoch": "2025-12-18T04:50:39.868512",
        "meta_mean_motion": 13.9975666,
        "meta_eccentricity": 0.00708052,
        "meta_inclination": 98.8647,
        "meta_ra_of_asc_node": 342.0233,
        "meta_arg_of_pericenter": 260.9204,
        "meta_mean_anomaly": 98.3944,
        "meta_ephemeris_type": 0,
        "meta_classification_type": "U",
        "meta_norad_cat_id": 37420,
        "meta_element_set_no": 999,
        "meta_rev_at_epoch": 59841,
        "meta_bstar": 0.0004339645,
        "meta_mean_motion_dot": 6.06e-06,
        "meta_mean_motion_ddot": 0,
        "tle_line1": "1 37420U 99025EGN 25352.20185033  .00000606  00000+0  43396-3 0  9999",
        "tle_line2": "2 37420  98.8647 342.0233 0070805 260.9204  98.3944 13.99756660598416"
      },
      "geometry": {
        "type": "Point",
        "coordinates": [
          -119.55085377075395,
          80.93697843331654
        ]
      }
    },
    {
      "type": "Feature",
      "properties": {
        "norad_id": 37421,
        "name": "FENGYUN 1C DEB",
        "group": "fengyun-1c-debris",
        "lat": -80.44516826623786,
        "lon": 58.25241845902135,
        "alt_km": 1408.7106972622605,
        "timestamp": "2025-12-18T13:51:49.973015+00:00",
        "meta_object_name": "FENGYUN 1C DEB",
        "meta_object_id": "1999-025EGP",
        "meta_epoch": "2025-12-17T07:53:38.656896",
        "meta_mean_motion": 13.40536382,
        "meta_eccentricity": 0.04092708,
        "meta_inclination": 98.888,
        "meta_ra_of_asc_node": 305.5227,
        "meta_arg_of_pericenter": 73.9716,
        "meta_mean_anomaly": 290.6084,
        "meta_ephemeris_type": 0,
        "meta_classification_type": "U",
        "meta_norad_cat_id": 37421,
        "meta_element_set_no": 999,
        "meta_rev_at_epoch": 61007,
        "meta_bstar": 0.00075435568,
        "meta_mean_motion_dot": 6.43e-06,
        "meta_mean_motion_ddot": 0,
        "tle_line1": "1 37421U 99025EGP 25351.32891964  .00000643  00000+0  75436-3 0  9990",
        "tle_line2": "2 37421  98.8880 305.5227 0409270  73.9716 290.6084 13.40536382610077"
      },
      "geometry": {
        "type": "Point",
        "coordinates": [
          58.25241845902135,
          -80.44516826623786
        ]
      }
    }
  ]
}